start=new Date('2022-06-29T00:00:00.000Z').valueOf();
sats=[{"RCS_SIZE":"LARGE","OBJECT_NAME":"STARLINK-2222","MEAN_ANOMALY":"277.8083","LAUNCH_DATE":"2021-05-15","TLE_LINE1":"1 48572U 21041V   22179.46291206 -.00000352  00000-0 -47227-5 0  9994","OBJECT_TYPE":"PAYLOAD","GP_ID":"207030299","TLE_LINE2":"2 48572  53.0549  83.0265 0001560  82.3083 277.8083 15.06397247 61550","SEMIMAJOR_AXIS":"6925.357","INCLINATION":"53.0549","REV_AT_EPOCH":"6155","APOAPSIS":"548.302","PERIOD":"95.592","NORAD_CAT_ID":"48572","BSTAR":"-0.00000472270000","COUNTRY_CODE":"US","DECAY_DATE":null,"TIME_SYSTEM":"UTC","ELEMENT_SET_NO":"999","MEAN_MOTION_DOT":"-0.00000352","RA_OF_ASC_NODE":"83.0265","SITE":"AFETR","ARG_OF_PERICENTER":"82.3083","FILE":"3504789","OBJECT_ID":"2021-041V","CENTER_NAME":"EARTH","CLASSIFICATION_TYPE":"U","MEAN_MOTION_DDOT":"0.0000000000000","EPOCH":"2022-06-28T11:06:35.601984","ECCENTRICITY":"0.00015600","REF_FRAME":"TEME","PERIAPSIS":"546.142","EPHEMERIS_TYPE":"0","MEAN_ELEMENT_THEORY":"SGP4","MEAN_MOTION":"15.06397247"},{"REF_FRAME":"TEME","PERIAPSIS":"546.174","MEAN_ELEMENT_THEORY":"SGP4","MEAN_MOTION":"15.06392657","EPHEMERIS_TYPE":"0","ECCENTRICITY":"0.00015330","EPOCH":"2022-06-28T20:09:18.790848","ARG_OF_PERICENTER":"64.6714","MEAN_MOTION_DDOT":"0.0000000000000","CENTER_NAME":"EARTH","CLASSIFICATION_TYPE":"U","OBJECT_ID":"2021-041W","FILE":"3504942","ELEMENT_SET_NO":"999","TIME_SYSTEM":"UTC","RA_OF_ASC_NODE":"71.3198","SITE":"AFETR","MEAN_MOTION_DOT":"0.00000581","PERIOD":"95.593","DECAY_DATE":null,"COUNTRY_CODE":"US","BSTAR":"0.00005793600000","NORAD_CAT_ID":"48573","APOAPSIS":"548.298","REV_AT_EPOCH":"6174","INCLINATION":"53.0556","MEAN_ANOMALY":"295.4434","OBJECT_NAME":"STARLINK-2224","RCS_SIZE":"LARGE","SEMIMAJOR_AXIS":"6925.371","TLE_LINE2":"2 48573  53.0556  71.3198 0001533  64.6714 295.4434 15.06392657 61745","GP_ID":"207059913","OBJECT_TYPE":"PAYLOAD","TLE_LINE1":"1 48573U 21041W   22179.83980082  .00000581  00000-0  57936-4 0  9992","LAUNCH_DATE":"2021-05-15"},{"PERIOD":"95.593","NORAD_CAT_ID":"48574","BSTAR":"-0.00004467500000","COUNTRY_CODE":"US","DECAY_DATE":null,"REV_AT_EPOCH":"6217","APOAPSIS":"548.328","INCLINATION":"53.0562","RCS_SIZE":"LARGE","OBJECT_NAME":"STARLINK-2225","MEAN_ANOMALY":"298.7767","LAUNCH_DATE":"2021-05-15","OBJECT_TYPE":"PAYLOAD","TLE_LINE1":"1 48574U 21041X   22179.87575706 -.00000947  00000-0 -44675-4 0  9994","GP_ID":"207059656","TLE_LINE2":"2 48574  53.0562  41.2535 0001548  61.3378 298.7767 15.06386180 62177","SEMIMAJOR_AXIS":"6925.391","REF_FRAME":"TEME","PERIAPSIS":"546.184","EPHEMERIS_TYPE":"0","MEAN_MOTION":"15.06386180","MEAN_ELEMENT_THEORY":"SGP4","EPOCH":"2022-06-28T21:01:05.409984","ECCENTRICITY":"0.00015480","ARG_OF_PERICENTER":"61.3378","FILE":"3504942","OBJECT_ID":"2021-041X","CLASSIFICATION_TYPE":"U","CENTER_NAME":"EARTH","MEAN_MOTION_DDOT":"0.0000000000000","TIME_SYSTEM":"UTC","ELEMENT_SET_NO":"999","MEAN_MOTION_DOT":"-0.00000947","SITE":"AFETR","RA_OF_ASC_NODE":"41.2535"},{"APOAPSIS":"548.301","REV_AT_EPOCH":"6231","BSTAR":"-0.00005508600000","NORAD_CAT_ID":"48575","DECAY_DATE":null,"COUNTRY_CODE":"US","PERIOD":"95.593","OBJECT_TYPE":"PAYLOAD","TLE_LINE1":"1 48575U 21041Y   22179.82509655 -.00001102  00000-0 -55086-4 0  9992","LAUNCH_DATE":"2021-05-15","TLE_LINE2":"2 48575  53.0552  31.7131 0001544  73.0320 287.0838 15.06394053 62310","SEMIMAJOR_AXIS":"6925.367","GP_ID":"207058913","OBJECT_NAME":"STARLINK-2227","RCS_SIZE":"LARGE","MEAN_ANOMALY":"287.0838","INCLINATION":"53.0552","EPOCH":"2022-06-28T19:48:08.341920","ECCENTRICITY":"0.00015440","EPHEMERIS_TYPE":"0","MEAN_ELEMENT_THEORY":"SGP4","MEAN_MOTION":"15.06394053","REF_FRAME":"TEME","PERIAPSIS":"546.163","RA_OF_ASC_NODE":"31.7131","SITE":"AFETR","MEAN_MOTION_DOT":"-0.00001102","TIME_SYSTEM":"UTC","ELEMENT_SET_NO":"999","OBJECT_ID":"2021-041Y","FILE":"3504942","MEAN_MOTION_DDOT":"0.0000000000000","CLASSIFICATION_TYPE":"U","CENTER_NAME":"EARTH","ARG_OF_PERICENTER":"73.0320"},{"ELEMENT_SET_NO":"999","TIME_SYSTEM":"UTC","MEAN_MOTION_DOT":"-0.00001436","RA_OF_ASC_NODE":"46.3672","SITE":"AFETR","ARG_OF_PERICENTER":"65.7979","CENTER_NAME":"EARTH","CLASSIFICATION_TYPE":"U","MEAN_MOTION_DDOT":"0.0000000000000","FILE":"3504942","OBJECT_ID":"2021-041Z","ECCENTRICITY":"0.00016030","EPOCH":"2022-06-28T19:48:45.230400","REF_FRAME":"TEME","PERIAPSIS":"546.138","MEAN_MOTION":"15.06388705","MEAN_ELEMENT_THEORY":"SGP4","EPHEMERIS_TYPE":"0","MEAN_ANOMALY":"294.3178","RCS_SIZE":"LARGE","OBJECT_NAME":"STARLINK-2228","GP_ID":"207058660","SEMIMAJOR_AXIS":"6925.383","TLE_LINE2":"2 48576  53.0606  46.3672 0001603  65.7979 294.3178 15.06388705 62109","LAUNCH_DATE":"2021-05-15","OBJECT_TYPE":"PAYLOAD","TLE_LINE1":"1 48576U 21041Z   22179.82552350 -.00001436  00000-0 -77556-4 0  9999","INCLINATION":"53.0606","REV_AT_EPOCH":"6210","APOAPSIS":"548.358","PERIOD":"95.593","COUNTRY_CODE":"US","DECAY_DATE":null,"NORAD_CAT_ID":"48576","BSTAR":"-0.00007755600000"},{"APOAPSIS":"548.270","REV_AT_EPOCH":"6175","PERIOD":"95.593","BSTAR":"-0.00003638900000","NORAD_CAT_ID":"48577","DECAY_DATE":null,"COUNTRY_CODE":"US","OBJECT_NAME":"STARLINK-2231","RCS_SIZE":"LARGE","MEAN_ANOMALY":"291.8996","TLE_LINE1":"1 48577U 21041AA  22179.89878192 -.00000823  00000-0 -36389-4 0  9990","OBJECT_TYPE":"PAYLOAD","LAUNCH_DATE":"2021-05-15","SEMIMAJOR_AXIS":"6925.379","TLE_LINE2":"2 48577  53.0554  71.0589 0001482  68.2150 291.8996 15.06390070 61756","GP_ID":"207059413","INCLINATION":"53.0554","EPOCH":"2022-06-28T21:34:14.757888","ECCENTRICITY":"0.00014820","PERIAPSIS":"546.218","REF_FRAME":"TEME","EPHEMERIS_TYPE":"0","MEAN_ELEMENT_THEORY":"SGP4","MEAN_MOTION":"15.06390070","TIME_SYSTEM":"UTC","ELEMENT_SET_NO":"999","SITE":"AFETR","RA_OF_ASC_NODE":"71.0589","MEAN_MOTION_DOT":"-0.00000823","ARG_OF_PERICENTER":"68.2150","OBJECT_ID":"2021-041AA","FILE":"3504942","MEAN_MOTION_DDOT":"0.0000000000000","CLASSIFICATION_TYPE":"U","CENTER_NAME":"EARTH"},{"MEAN_MOTION_DDOT":"0.0000000000000","CLASSIFICATION_TYPE":"U","CENTER_NAME":"EARTH","OBJECT_ID":"2021-041AB","FILE":"3504942","ARG_OF_PERICENTER":"72.2600","RA_OF_ASC_NODE":"71.7446","SITE":"AFETR","MEAN_MOTION_DOT":"-0.00000737","ELEMENT_SET_NO":"999","TIME_SYSTEM":"UTC","MEAN_MOTION":"15.06391334","MEAN_ELEMENT_THEORY":"SGP4","EPHEMERIS_TYPE":"0","PERIAPSIS":"546.112","REF_FRAME":"TEME","ECCENTRICITY":"0.00016290","EPOCH":"2022-06-28T20:41:15.345024","INCLINATION":"53.0557","SEMIMAJOR_AXIS":"6925.375","TLE_LINE2":"2 48578  53.0557  71.7446 0001629  72.2600 287.8566 15.06391334 61748","GP_ID":"207060157","OBJECT_TYPE":"PAYLOAD","TLE_LINE1":"1 48578U 21041AB  22179.86198316 -.00000737  00000-0 -30609-4 0  9994","LAUNCH_DATE":"2021-05-15","MEAN_ANOMALY":"287.8566","OBJECT_NAME":"STARLINK-2232","RCS_SIZE":"LARGE","DECAY_DATE":null,"COUNTRY_CODE":"US","BSTAR":"-0.00003060900000","NORAD_CAT_ID":"48578","PERIOD":"95.593","APOAPSIS":"548.368","REV_AT_EPOCH":"6174"},{"PERIAPSIS":"546.114","REF_FRAME":"TEME","EPHEMERIS_TYPE":"0","MEAN_ELEMENT_THEORY":"SGP4","MEAN_MOTION":"15.06398160","EPOCH":"2022-06-28T21:18:18.493920","ECCENTRICITY":"0.00015960","ARG_OF_PERICENTER":"63.8521","OBJECT_ID":"2021-041AC","FILE":"3504942","MEAN_MOTION_DDOT":"0.0000000000000","CENTER_NAME":"EARTH","CLASSIFICATION_TYPE":"U","TIME_SYSTEM":"UTC","ELEMENT_SET_NO":"999","RA_OF_ASC_NODE":"71.1229","SITE":"AFETR","MEAN_MOTION_DOT":"0.00000452","PERIOD":"95.592","BSTAR":"0.00004925900000","NORAD_CAT_ID":"48579","DECAY_DATE":null,"COUNTRY_CODE":"US","APOAPSIS":"548.324","REV_AT_EPOCH":"6175","INCLINATION":"53.0558","OBJECT_NAME":"STARLINK-2233","RCS_SIZE":"LARGE","MEAN_ANOMALY":"296.2632","OBJECT_TYPE":"PAYLOAD","TLE_LINE1":"1 48579U 21041AC  22179.88771405  .00000452  00000-0  49259-4 0  9996","LAUNCH_DATE":"2021-05-15","SEMIMAJOR_AXIS":"6925.354","TLE_LINE2":"2 48579  53.0558  71.1229 0001596  63.8521 296.2632 15.06398160 61757","GP_ID":"207058413"},{"TIME_SYSTEM":"UTC","ELEMENT_SET_NO":"999","SITE":"AFETR","RA_OF_ASC_NODE":"46.2792","MEAN_MOTION_DOT":"-0.00001282","ARG_OF_PERICENTER":"78.1360","OBJECT_ID":"2021-041AD","FILE":"3504942","MEAN_MOTION_DDOT":"0.0000000000000","CLASSIFICATION_TYPE":"U","CENTER_NAME":"EARTH","EPOCH":"2022-06-28T20:29:50.482464","ECCENTRICITY":"0.00013120","PERIAPSIS":"546.326","REF_FRAME":"TEME","EPHEMERIS_TYPE":"0","MEAN_MOTION":"15.06393105","MEAN_ELEMENT_THEORY":"SGP4","OBJECT_NAME":"STARLINK-2234","RCS_SIZE":"LARGE","MEAN_ANOMALY":"281.9776","OBJECT_TYPE":"PAYLOAD","TLE_LINE1":"1 48580U 21041AD  22179.85405651 -.00001282  00000-0 -67215-4 0  9998","LAUNCH_DATE":"2021-05-15","TLE_LINE2":"2 48580  53.0557  46.2792 0001312  78.1360 281.9776 15.06393105 62555","SEMIMAJOR_AXIS":"6925.370","GP_ID":"207059161","INCLINATION":"53.0557","APOAPSIS":"548.143","REV_AT_EPOCH":"6255","PERIOD":"95.593","BSTAR":"-0.00006721500000","NORAD_CAT_ID":"48580","DECAY_DATE":null,"COUNTRY_CODE":"US"},{"TIME_SYSTEM":"UTC","ELEMENT_SET_NO":"999","RA_OF_ASC_NODE":"36.4488","SITE":"AFETR","MEAN_MOTION_DOT":"-0.00000572","ARG_OF_PERICENTER":"68.9989","OBJECT_ID":"2021-041AE","FILE":"3504942","MEAN_MOTION_DDOT":"0.0000000000000","CENTER_NAME":"EARTH","CLASSIFICATION_TYPE":"U","EPOCH":"2022-06-28T19:34:09.673536","ECCENTRICITY":"0.00016840","REF_FRAME":"TEME","PERIAPSIS":"546.074","EPHEMERIS_TYPE":"0","MEAN_MOTION":"15.06391431","MEAN_ELEMENT_THEORY":"SGP4","OBJECT_NAME":"STARLINK-2235","RCS_SIZE":"LARGE","MEAN_ANOMALY":"291.1179","OBJECT_TYPE":"PAYLOAD","TLE_LINE1":"1 48581U 21041AE  22179.81538974 -.00000572  00000-0 -19475-4 0  9996","LAUNCH_DATE":"2021-05-15","TLE_LINE2":"2 48581  53.0547  36.4488 0001684  68.9989 291.1179 15.06391431 62699","SEMIMAJOR_AXIS":"6925.375","GP_ID":"207059914","INCLINATION":"53.0547","APOAPSIS":"548.406","REV_AT_EPOCH":"6269","PERIOD":"95.593","BSTAR":"-0.00001947500000","NORAD_CAT_ID":"48581","DECAY_DATE":null,"COUNTRY_CODE":"US"}];
